ONEWEB-0211             
1 48767U 21045A   26194.64586178 -.00000060  00000+0 -19080-3 0  9999
2 48767  87.8990 253.8052 0002628 106.7454 253.3965 13.16197333247929
ONEWEB-0223             
1 48768U 21045B   26194.58516446  .00001346  00000+0  35404-2 0  9997
2 48768  87.8994 253.9317 0002534 110.7497 249.3905 13.15540077247876
ONEWEB-0230             
1 48769U 21045C   26194.63270151  .00000035  00000+0  57709-4 0  9992
2 48769  87.8983 253.9347 0001894  94.4913 265.6433 13.15548434248140
ONEWEB-0237             
1 48770U 21045D   26194.62160643  .00000157  00000+0  38363-3 0  9996
2 48770  87.8983 253.9385 0002375  97.2516 262.8885 13.15548110247868
ONEWEB-0235             
1 48771U 21045E   26194.59623785  .00000052  00000+0  10482-3 0  9990
2 48771  87.8990 253.9317 0002125 129.2407 230.8913 13.15549792247853
ONEWEB-0242             
1 48772U 21045F   26194.58991794 -.00000093  00000+0 -28185-3 0  9994
2 48772  87.8996 253.9299 0001949 102.1164 258.0185 13.15548048247892
ONEWEB-0241             
1 48773U 21045G   26194.57722961 -.00000562  00000+0 -15280-2 0  9994
2 48773  87.8987 253.9478 0002223 104.7940 255.3437 13.15541220247804
ONEWEB-0243             
1 48774U 21045H   26194.60892245  .00000121  00000+0  28696-3 0  9997
2 48774  87.8981 253.9543 0001824 112.0079 248.1246 13.15550761247834
ONEWEB-0222             
1 48775U 21045J   26194.59228633 -.00000030  00000+0 -11394-3 0  9998
2 48775  87.8988 253.9280 0002259 105.5633 254.5747 13.15546996247872
ONEWEB-0244             
1 48776U 21045K   26194.61844099  .00000186  00000+0  45880-3 0  9999
2 48776  87.9012 253.9162 0002050 103.4670 256.6689 13.15547830248448
ONEWEB-0247             
1 48777U 21045L   26194.61527012  .00000127  00000+0  30435-3 0  9998
2 48777  87.8979 253.9481 0002061 122.0904 238.0427 13.15548680247888
ONEWEB-0245             
1 48778U 21045M   26194.61050564  .00000129  00000+0  30955-3 0  9991
2 48778  87.8985 253.9310 0002151 105.8446 254.2922 13.15549302247856
ONEWEB-0229             
1 48779U 21045N   26194.60576250  .00000059  00000+0  12240-3 0  9995
2 48779  87.9002 253.9279 0002022 102.0951 258.0406 13.15547538247880
ONEWEB-0228             
1 48780U 21045P   26194.63916991 -.00000024  00000+0 -97148-4 0  9995
2 48780  87.8999 253.9160 0002106 102.0480 258.0886 13.15549095247809
ONEWEB-0232             
1 48781U 21045Q   26194.61366710  .00003160  00000+0  83556-2 0  9990
2 48781  87.8999 253.9213 0001886  99.4203 260.7141 13.15569470248124
ONEWEB-0231             
1 48782U 21045R   26194.59150020 -.00000010  00000+0 -59989-4 0  9991
2 48782  87.8996 253.9368 0002222 103.2865 256.8513 13.15547180247814
ONEWEB-0234             
1 48783U 21045S   26194.62939102  .00000148  00000+0  35943-3 0  9995
2 48783  87.9000 253.9110 0002526 102.3737 257.7676 13.15547430247955
ONEWEB-0238             
1 48784U 21045T   26194.62965274  .00000114  00000+0  26771-3 0  9997
2 48784  87.9006 253.9071 0002376  95.2420 264.8981 13.15548435247853
ONEWEB-0240             
1 48785U 21045U   26193.66216924 -.00000104  00000+0 -31045-3 0  9993
2 48785  87.8996 254.1108 0002360 104.8282 255.3110 13.15548817247753
ONEWEB-0246             
1 48786U 21045V   26194.64537350 -.00000082  00000+0 -25153-3 0  9990
2 48786  87.8994 253.9185 0002046  98.9099 261.2263 13.15547745247758
ONEWEB-0210             
1 48787U 21045W   26194.62002153  .00000156  00000+0  38122-3 0  9997
2 48787  87.8994 253.9210 0001791 131.9659 228.1625 13.15547963247794
ONEWEB-0214             
1 48788U 21045X   26194.62872389  .00000086  00000+0  19384-3 0  9995
2 48788  87.9004 253.9145 0001733 109.2727 250.8591 13.15546879247761
ONEWEB-0221             
1 48789U 21045Y   26194.63587161 -.00000019  00000+0 -85284-4 0  9999
2 48789  87.8998 253.9226 0002156 103.8537 256.2833 13.15547716247852
ONEWEB-0213             
1 48790U 21045Z   26194.62477775  .00000151  00000+0  36727-3 0  9991
2 48790  87.8995 253.9283 0002063 108.7067 251.4288 13.15548490247911
ONEWEB-0212             
1 48791U 21045AA  26194.60178962 -.00000012  00000+0 -65000-4 0  9991
2 48791  87.8989 253.9278 0002119 100.7521 259.3848 13.15546704247902
ONEWEB-0227             
1 48792U 21045AB  26194.60100814  .00000041  00000+0  75365-4 0  9998
2 48792  87.8991 253.9275 0002114 100.5900 259.5468 13.15547675247859
ONEWEB-0226             
1 48793U 21045AC  26194.59466773  .00000005  00000+0 -21889-4 0  9999
2 48793  87.8986 253.9339 0001986 106.6724 253.4624 13.15547311247823
ONEWEB-0224             
1 48794U 21045AD  26194.63428755  .00000022  00000+0  25254-4 0  9991
2 48794  87.8991 253.9573 0002940  98.1668 261.9796 13.15548166247758
ONEWEB-0233             
1 48795U 21045AE  26194.63889615 -.00000002  00000+0 -39518-4 0  9996
2 48795  87.8985 253.9640 0002233 105.1828 254.9550 13.15550400247775
ONEWEB-0190             
1 48796U 21045AF  26194.62636097  .00000131  00000+0  31477-3 0  9996
2 48796  87.8991 253.9306 0002209 116.5383 243.5974 13.15548595247841
