OBJECT_NAME,OBJECT_ID,EPOCH,MEAN_MOTION,ECCENTRICITY,INCLINATION,RA_OF_ASC_NODE,ARG_OF_PERICENTER,MEAN_ANOMALY,EPHEMERIS_TYPE,CLASSIFICATION_TYPE,NORAD_CAT_ID,ELEMENT_SET_NO,REV_AT_EPOCH,BSTAR,MEAN_MOTION_DOT,MEAN_MOTION_DDOT
ONEWEB-0211,2021-045A,2026-07-13T15:30:02.457792,13.16197333,.00026281,87.8990,253.8052,106.7454,253.3965,0,U,48767,999,24792,-.19080293E-3,-.6E-6,0
ONEWEB-0223,2021-045B,2026-07-13T14:02:38.209344,13.15540077,.00025348,87.8994,253.9317,110.7497,249.3905,0,U,48768,999,24787,.35403765E-2,.1346E-4,0
ONEWEB-0230,2021-045C,2026-07-13T15:11:05.410464,13.15548434,.00018941,87.8983,253.9347,94.4913,265.6433,0,U,48769,999,24814,.57709132E-4,.35E-6,0
ONEWEB-0237,2021-045D,2026-07-13T14:55:06.795552,13.15548110,.00023758,87.8983,253.9385,97.2516,262.8885,0,U,48770,999,24786,.38363075E-3,.157E-5,0
ONEWEB-0235,2021-045E,2026-07-13T14:18:34.950240,13.15549792,.00021255,87.8990,253.9317,129.2407,230.8913,0,U,48771,999,24785,.10482253E-3,.52E-6,0
ONEWEB-0242,2021-045F,2026-07-13T14:09:28.910016,13.15548048,.00019498,87.8996,253.9299,102.1164,258.0185,0,U,48772,999,24789,-.28185094E-3,-.93E-6,0
ONEWEB-0241,2021-045G,2026-07-13T13:51:12.638304,13.15541220,.00022234,87.8987,253.9478,104.7940,255.3437,0,U,48773,999,24780,-.15279972E-2,-.562E-5,0
ONEWEB-0243,2021-045H,2026-07-13T14:36:50.899680,13.15550761,.00018246,87.8981,253.9543,112.0079,248.1246,0,U,48774,999,24783,.28695903E-3,.121E-5,0
ONEWEB-0222,2021-045J,2026-07-13T14:12:53.538912,13.15546996,.00022596,87.8988,253.9280,105.5633,254.5747,0,U,48775,999,24787,-.11393691E-3,-.3E-6,0
ONEWEB-0244,2021-045K,2026-07-13T14:50:33.301536,13.15547830,.00020503,87.9012,253.9162,103.4670,256.6689,0,U,48776,999,24844,.45879779E-3,.186E-5,0
ONEWEB-0247,2021-045L,2026-07-13T14:45:59.338368,13.15548680,.00020614,87.8979,253.9481,122.0904,238.0427,0,U,48777,999,24788,.30435133E-3,.127E-5,0
ONEWEB-0245,2021-045M,2026-07-13T14:39:07.687296,13.15549302,.00021516,87.8985,253.9310,105.8446,254.2922,0,U,48778,999,24785,.30955447E-3,.129E-5,0
ONEWEB-0229,2021-045N,2026-07-13T14:32:17.880000,13.15547538,.00020228,87.9002,253.9279,102.0951,258.0406,0,U,48779,999,24788,.12240199E-3,.59E-6,0
ONEWEB-0228,2021-045P,2026-07-13T15:20:24.280224,13.15549095,.0002106,87.8999,253.9160,102.0480,258.0886,0,U,48780,999,24780,-.97147801E-4,-.24E-6,0
ONEWEB-0232,2021-045Q,2026-07-13T14:43:40.837440,13.15569470,.00018862,87.8999,253.9213,99.4203,260.7141,0,U,48781,999,24812,.83556275E-2,.316E-4,0
ONEWEB-0231,2021-045R,2026-07-13T14:11:45.617280,13.15547180,.0002222,87.8996,253.9368,103.2865,256.8513,0,U,48782,999,24781,-.59989267E-4,-.1E-6,0
ONEWEB-0234,2021-045S,2026-07-13T15:06:19.384128,13.15547430,.00025268,87.9000,253.9110,102.3737,257.7676,0,U,48783,999,24795,.35942864E-3,.148E-5,0
ONEWEB-0238,2021-045T,2026-07-13T15:06:41.996736,13.15548435,.0002376,87.9006,253.9071,95.2420,264.8981,0,U,48784,999,24785,.26771262E-3,.114E-5,0
ONEWEB-0240,2021-045U,2026-07-12T15:53:31.422336,13.15548817,.00023601,87.8996,254.1108,104.8282,255.3110,0,U,48785,999,24775,-.31044887E-3,-.104E-5,0
ONEWEB-0246,2021-045V,2026-07-13T15:29:20.270400,13.15547745,.00020465,87.8994,253.9185,98.9099,261.2263,0,U,48786,999,24775,-.25152974E-3,-.82E-6,0
ONEWEB-0210,2021-045W,2026-07-13T14:52:49.860192,13.15547963,.00017918,87.8994,253.9210,131.9659,228.1625,0,U,48787,999,24779,.38121968E-3,.156E-5,0
ONEWEB-0214,2021-045X,2026-07-13T15:05:21.744096,13.15546879,.00017333,87.9004,253.9145,109.2727,250.8591,0,U,48788,999,24776,.19383725E-3,.86E-6,0
ONEWEB-0221,2021-045Y,2026-07-13T15:15:39.307104,13.15547716,.00021563,87.8998,253.9226,103.8537,256.2833,0,U,48789,999,24785,-.85283503E-4,-.19E-6,0
ONEWEB-0213,2021-045Z,2026-07-13T14:59:40.797600,13.15548490,.00020637,87.8995,253.9283,108.7067,251.4288,0,U,48790,999,24791,.36727233E-3,.151E-5,0
ONEWEB-0212,2021-045AA,2026-07-13T14:26:34.623168,13.15546704,.0002119,87.8989,253.9278,100.7521,259.3848,0,U,48791,999,24790,-.64999526E-4,-.12E-6,0
ONEWEB-0227,2021-045AB,2026-07-13T14:25:27.103296,13.15547675,.00021143,87.8991,253.9275,100.5900,259.5468,0,U,48792,999,24785,.75364759E-4,.41E-6,0
ONEWEB-0226,2021-045AC,2026-07-13T14:16:19.291872,13.15547311,.00019868,87.8986,253.9339,106.6724,253.4624,0,U,48793,999,24782,-.21888696E-4,.5E-7,0
ONEWEB-0224,2021-045AD,2026-07-13T15:13:22.444320,13.15548166,.00029409,87.8991,253.9573,98.1668,261.9796,0,U,48794,999,24775,.25253712E-4,.22E-6,0
ONEWEB-0233,2021-045AE,2026-07-13T15:20:00.627360,13.15550400,.00022334,87.8985,253.9640,105.1828,254.9550,0,U,48795,999,24777,-.39517629E-4,-.2E-7,0
ONEWEB-0190,2021-045AF,2026-07-13T15:01:57.587808,13.15548595,.00022096,87.8991,253.9306,116.5383,243.5974,0,U,48796,999,24784,.31476587E-3,.131E-5,0
